{
  "type": "FeatureCollection",
  "features": [
    {
      "type": "Feature",
      "properties": {
        "norad_id": 58701,
        "name": "TIANMU-1 16",
        "group": "weather",
        "lat": -27.15190643409485,
        "lon": -25.657591280644752,
        "alt_km": 501.1184274774696,
        "timestamp": "2025-12-03T06:58:42.884683+00:00",
        "meta_object_name": "TIANMU-1 16",
        "meta_object_id": "2024-004B",
        "meta_epoch": "2025-12-02T23:46:09.262272",
        "meta_mean_motion": 15.24215807,
        "meta_eccentricity": 0.0005055,
        "meta_inclination": 97.4572,
        "meta_ra_of_asc_node": 157.8955,
        "meta_arg_of_pericenter": 336.3217,
        "meta_mean_anomaly": 23.7787,
        "meta_ephemeris_type": 0,
        "meta_classification_type": "U",
        "meta_norad_cat_id": 58701,
        "meta_element_set_no": 999,
        "meta_rev_at_epoch": 10586,
        "meta_bstar": 6.5909e-05,
        "meta_mean_motion_dot": 1.535e-05,
        "meta_mean_motion_ddot": 0,
        "tle_line1": "1 58701U 24004B   25336.99038498  .00001535  00000+0  65909-4 0  9996",
        "tle_line2": "2 58701  97.4572 157.8955 0005055 336.3217  23.7787 15.24215807105866"
      },
      "geometry": {
        "type": "Point",
        "coordinates": [
          -25.657591280644752,
          -27.15190643409485
        ]
      }
    },
    {
      "type": "Feature",
      "properties": {
        "norad_id": 58702,
        "name": "TIANMU-1 17",
        "group": "weather",
        "lat": -68.48883216512387,
        "lon": 178.0173729978226,
        "alt_km": 498.29117434408727,
        "timestamp": "2025-12-03T06:58:42.884699+00:00",
        "meta_object_name": "TIANMU-1 17",
        "meta_object_id": "2024-004C",
        "meta_epoch": "2025-12-02T20:15:19.028736",
        "meta_mean_motion": 15.2426635,
        "meta_eccentricity": 0.000436,
        "meta_inclination": 97.46,
        "meta_ra_of_asc_node": 158.1546,
        "meta_arg_of_pericenter": 341.0029,
        "meta_mean_anomaly": 19.1045,
        "meta_ephemeris_type": 0,
        "meta_classification_type": "U",
        "meta_norad_cat_id": 58702,
        "meta_element_set_no": 999,
        "meta_rev_at_epoch": 10583,
        "meta_bstar": 0.00037793,
        "meta_mean_motion_dot": 9.16e-05,
        "meta_mean_motion_ddot": 0,
        "tle_line1": "1 58702U 24004C   25336.84397024  .00009160  00000+0  37793-3 0  9995",
        "tle_line2": "2 58702  97.4600 158.1546 0004360 341.0029  19.1045 15.24266350105833"
      },
      "geometry": {
        "type": "Point",
        "coordinates": [
          178.0173729978226,
          -68.48883216512387
        ]
      }
    },
    {
      "type": "Feature",
      "properties": {
        "norad_id": 58703,
        "name": "TIANMU-1 18",
        "group": "weather",
        "lat": 21.904866771309155,
        "lon": 155.77152941611982,
        "alt_km": 490.9178789594762,
        "timestamp": "2025-12-03T06:58:42.884718+00:00",
        "meta_object_name": "TIANMU-1 18",
        "meta_object_id": "2024-004D",
        "meta_epoch": "2025-12-02T19:51:11.484864",
        "meta_mean_motion": 15.24258614,
        "meta_eccentricity": 0.0003726,
        "meta_inclination": 97.4617,
        "meta_ra_of_asc_node": 158.331,
        "meta_arg_of_pericenter": 342.7195,
        "meta_mean_anomaly": 17.3915,
        "meta_ephemeris_type": 0,
        "meta_classification_type": "U",
        "meta_norad_cat_id": 58703,
        "meta_element_set_no": 999,
        "meta_rev_at_epoch": 10583,
        "meta_bstar": 0.00034744,
        "meta_mean_motion_dot": 8.412e-05,
        "meta_mean_motion_ddot": 0,
        "tle_line1": "1 58703U 24004D   25336.82721626  .00008412  00000+0  34744-3 0  9995",
        "tle_line2": "2 58703  97.4617 158.3310 0003726 342.7195  17.3915 15.24258614105830"
      },
      "geometry": {
        "type": "Point",
        "coordinates": [
          155.77152941611982,
          21.904866771309155
        ]
      }
    },
    {
      "type": "Feature",
      "properties": {
        "norad_id": 58990,
        "name": "INSAT-3DS",
        "group": "weather",
        "lat": -0.016364032333021424,
        "lon": -100.8543129308114,
        "alt_km": 35779.790876761086,
        "timestamp": "2025-12-03T06:58:42.884736+00:00",
        "meta_object_name": "INSAT-3DS",
        "meta_object_id": "2024-033A",
        "meta_epoch": "2025-12-02T20:20:52.842048",
        "meta_mean_motion": 1.00269649,
        "meta_eccentricity": 0.0001635,
        "meta_inclination": 0.0139,
        "meta_ra_of_asc_node": 270.8956,
        "meta_arg_of_pericenter": 344.3356,
        "meta_mean_anomaly": 204.0476,
        "meta_ephemeris_type": 0,
        "meta_classification_type": "U",
        "meta_norad_cat_id": 58990,
        "meta_element_set_no": 999,
        "meta_rev_at_epoch": 4510,
        "meta_bstar": 0,
        "meta_mean_motion_dot": -1.36e-06,
        "meta_mean_motion_ddot": 0,
        "tle_line1": "1 58990U 24033A   25336.84783382 -.00000136  00000+0  00000+0 0  9994",
        "tle_line2": "2 58990   0.0139 270.8956 0001635 344.3356 204.0476  1.00269649 45106"
      },
      "geometry": {
        "type": "Point",
        "coordinates": [
          -100.8543129308114,
          -0.016364032333021424
        ]
      }
    },
    {
      "type": "Feature",
      "properties": {
        "norad_id": 59051,
        "name": "METEOR-M2 4",
        "group": "weather",
        "lat": 58.568252858740266,
        "lon": -80.11785553856474,
        "alt_km": 807.1038766414677,
        "timestamp": "2025-12-03T06:58:42.884756+00:00",
        "meta_object_name": "METEOR-M2 4",
        "meta_object_id": "2024-039A",
        "meta_epoch": "2025-12-02T20:34:11.935776",
        "meta_mean_motion": 14.22398809,
        "meta_eccentricity": 0.0007566,
        "meta_inclination": 98.6751,
        "meta_ra_of_asc_node": 293.9216,
        "meta_arg_of_pericenter": 25.9187,
        "meta_mean_anomaly": 334.2368,
        "meta_ephemeris_type": 0,
        "meta_classification_type": "U",
        "meta_norad_cat_id": 59051,
        "meta_element_set_no": 999,
        "meta_rev_at_epoch": 9135,
        "meta_bstar": 4.9716e-05,
        "meta_mean_motion_dot": 6.7e-07,
        "meta_mean_motion_ddot": 0,
        "tle_line1": "1 59051U 24039A   25336.85708259  .00000067  00000+0  49716-4 0  9994",
        "tle_line2": "2 59051  98.6751 293.9216 0007566  25.9187 334.2368 14.22398809 91359"
      },
      "geometry": {
        "type": "Point",
        "coordinates": [
          -80.11785553856474,
          58.568252858740266
        ]
      }
    },
    {
      "type": "Feature",
      "properties": {
        "norad_id": 60133,
        "name": "GOES 19",
        "group": "weather",
        "lat": -0.006720339655224426,
        "lon": 101.85986952231727,
        "alt_km": 35791.35533757233,
        "timestamp": "2025-12-03T06:58:42.884773+00:00",
        "meta_object_name": "GOES 19",
        "meta_object_id": "2024-119A",
        "meta_epoch": "2025-12-02T19:22:50.444256",
        "meta_mean_motion": 1.0027112,
        "meta_eccentricity": 0.0001243,
        "meta_inclination": 0.0033,
        "meta_ra_of_asc_node": 106.9022,
        "meta_arg_of_pericenter": 190.9214,
        "meta_mean_anomaly": 349.6149,
        "meta_ephemeris_type": 0,
        "meta_classification_type": "U",
        "meta_norad_cat_id": 60133,
        "meta_element_set_no": 999,
        "meta_rev_at_epoch": 499,
        "meta_bstar": 0,
        "meta_mean_motion_dot": -2.28e-06,
        "meta_mean_motion_ddot": 0,
        "tle_line1": "1 60133U 24119A   25336.80752829 -.00000228  00000+0  00000+0 0  9991",
        "tle_line2": "2 60133   0.0033 106.9022 0001243 190.9214 349.6149  1.00271120  4999"
      },
      "geometry": {
        "type": "Point",
        "coordinates": [
          101.85986952231727,
          -0.006720339655224426
        ]
      }
    },
    {
      "type": "Feature",
      "properties": {
        "norad_id": 65815,
        "name": "FENGYUN 3H",
        "group": "weather",
        "lat": 23.04792572568906,
        "lon": -86.62959538504897,
        "alt_km": 824.8866425618853,
        "timestamp": "2025-12-03T06:58:42.884791+00:00",
        "meta_object_name": "FENGYUN 3H",
        "meta_object_id": "2025-219A",
        "meta_epoch": "2025-12-02T20:43:18.376032",
        "meta_mean_motion": 14.19900112,
        "meta_eccentricity": 6.35e-05,
        "meta_inclination": 98.6569,
        "meta_ra_of_asc_node": 276.6689,
        "meta_arg_of_pericenter": 69.7764,
        "meta_mean_anomaly": 290.3481,
        "meta_ephemeris_type": 0,
        "meta_classification_type": "U",
        "meta_norad_cat_id": 65815,
        "meta_element_set_no": 999,
        "meta_rev_at_epoch": 952,
        "meta_bstar": 9.043e-05,
        "meta_mean_motion_dot": 1.49e-06,
        "meta_mean_motion_ddot": 0,
        "tle_line1": "1 65815U 25219A   25336.86340713  .00000149  00000+0  90430-4 0  9998",
        "tle_line2": "2 65815  98.6569 276.6689 0000635  69.7764 290.3481 14.19900112  9528"
      },
      "geometry": {
        "type": "Point",
        "coordinates": [
          -86.62959538504897,
          23.04792572568906
        ]
      }
    }
  ]
}